{
"type": "FeatureCollection",
"name": "village_connectivity",
"crs": { "type": "name", "properties": { "name": "urn:ogc:def:crs:OGC:1.3:CRS84" } },
"features": [
{ "type": "Feature", "properties": { "state": "Odisha", "district": "Koraput", "block": "Koraput", "village": "Bhoiguda", "lgd_code": "428991", "latitude": 18.737449100604461, "longitude": 82.728534649073623, "coordinate_source": "lgd_master", "village_id": 1, "airtel_score": "Moderate", "bsnl_score": "Moderate", "jio_score": "Moderate", "vodafone_idea_score": "Moderate", "airtel_nearest_km": 3.3696434658801264, "bsnl_nearest_km": 2.7735565977455652, "jio_nearest_km": 4.8626691190826401, "vodafone_idea_nearest_km": null }, "geometry": { "type": "Point", "coordinates": [ 82.728534649073623, 18.737449100604461 ] } },
{ "type": "Feature", "properties": { "state": "Odisha", "district": "Koraput", "block": "Koraput", "village": "Haldiput", "lgd_code": "428993", "latitude": 18.709167624489329, "longitude": 82.747971624801707, "coordinate_source": "lgd_master", "village_id": 2, "airtel_score": "Weak", "bsnl_score": "Moderate", "jio_score": "Weak", "vodafone_idea_score": "Weak", "airtel_nearest_km": 5.580980065028891, "bsnl_nearest_km": 2.325290881562728, "jio_nearest_km": 5.580980065028891, "vodafone_idea_nearest_km": 8.9536898218082808 }, "geometry": { "type": "Point", "coordinates": [ 82.747971624801707, 18.709167624489329 ] } },
{ "type": "Feature", "properties": { "state": "Odisha", "district": "Koraput", "block": "Koraput", "village": "Horidaput", "lgd_code": "428997", "latitude": 18.685649923195559, "longitude": 82.724653884566933, "coordinate_source": "lgd_master", "village_id": 3, "airtel_score": "Weak", "bsnl_score": "Weak", "jio_score": "Weak", "vodafone_idea_score": "Unknown", "airtel_nearest_km": 8.1051745407231479, "bsnl_nearest_km": 5.4903621188121212, "jio_nearest_km": 8.1051745407231479, "vodafone_idea_nearest_km": null }, "geometry": { "type": "Point", "coordinates": [ 82.724653884566933, 18.685649923195559 ] } },
{ "type": "Feature", "properties": { "state": "Odisha", "district": "Koraput", "block": "Koraput", "village": "Kalchur", "lgd_code": "428990", "latitude": 18.751339399910801, "longitude": 82.733924209067254, "coordinate_source": "lgd_master", "village_id": 4, "airtel_score": "Strong", "bsnl_score": "Strong", "jio_score": "Moderate", "vodafone_idea_score": "Moderate", "airtel_nearest_km": 1.9474335874193442, "bsnl_nearest_km": 1.153023938272639, "jio_nearest_km": 3.2365036852546964, "vodafone_idea_nearest_km": null }, "geometry": { "type": "Point", "coordinates": [ 82.733924209067254, 18.751339399910801 ] } },
{ "type": "Feature", "properties": { "state": "Odisha", "district": "Koraput", "block": "Koraput", "village": "Mundar", "lgd_code": "428996", "latitude": 18.68479240296503, "longitude": 82.713440708688964, "coordinate_source": "lgd_master", "village_id": 5, "airtel_score": "Weak", "bsnl_score": "Weak", "jio_score": "Weak", "vodafone_idea_score": "Moderate", "airtel_nearest_km": 9.1743307977466166, "bsnl_nearest_km": 6.5862650787540549, "jio_nearest_km": 9.2847130377096807, "vodafone_idea_nearest_km": null }, "geometry": { "type": "Point", "coordinates": [ 82.713440708688964, 18.68479240296503 ] } },
{ "type": "Feature", "properties": { "state": "Odisha", "district": "Koraput", "block": "Koraput", "village": "Parajamundar", "lgd_code": "428994", "latitude": 18.700010315337199, "longitude": 82.735124571665793, "coordinate_source": "lgd_master", "village_id": 6, "airtel_score": "Weak", "bsnl_score": "Moderate", "jio_score": "Weak", "vodafone_idea_score": "Unknown", "airtel_nearest_km": 6.8231062223349985, "bsnl_nearest_km": 3.8412083232250476, "jio_nearest_km": 6.843214408537138, "vodafone_idea_nearest_km": null }, "geometry": { "type": "Point", "coordinates": [ 82.735124571665793, 18.700010315337199 ] } },
{ "type": "Feature", "properties": { "state": "Odisha", "district": "Koraput", "block": "Koraput", "village": "Pitei", "lgd_code": "428995", "latitude": 18.707755223047961, "longitude": 82.706821403837637, "coordinate_source": "lgd_master", "village_id": 7, "airtel_score": "Weak", "bsnl_score": "Weak", "jio_score": "Weak", "vodafone_idea_score": "Moderate", "airtel_nearest_km": 7.3605702929435637, "bsnl_nearest_km": 6.6479025103952329, "jio_nearest_km": 8.7286749494551366, "vodafone_idea_nearest_km": null }, "geometry": { "type": "Point", "coordinates": [ 82.706821403837637, 18.707755223047961 ] } },
{ "type": "Feature", "properties": { "state": "Odisha", "district": "Koraput", "block": "Koraput", "village": "Sirishi", "lgd_code": "428985", "latitude": 18.741426407118151, "longitude": 82.686061988710918, "coordinate_source": "lgd_master", "village_id": 8, "airtel_score": "Weak", "bsnl_score": "Weak", "jio_score": "Weak", "vodafone_idea_score": "Moderate", "airtel_nearest_km": 6.4584974066344119, "bsnl_nearest_km": 6.0478295614989239, "jio_nearest_km": 7.0971888307574282, "vodafone_idea_nearest_km": null }, "geometry": { "type": "Point", "coordinates": [ 82.686061988710918, 18.741426407118151 ] } },
{ "type": "Feature", "properties": { "state": "Odisha", "district": "Koraput", "block": "Koraput", "village": "Suku", "lgd_code": "428987", "latitude": 18.72838956689036, "longitude": 82.713289463480933, "coordinate_source": "lgd_master", "village_id": 9, "airtel_score": "Weak", "bsnl_score": "Moderate", "jio_score": "Weak", "vodafone_idea_score": "Unknown", "airtel_nearest_km": 5.2181699061223963, "bsnl_nearest_km": 4.4918313233179097, "jio_nearest_km": 6.3693496764571842, "vodafone_idea_nearest_km": null }, "geometry": { "type": "Point", "coordinates": [ 82.713289463480933, 18.72838956689036 ] } },
{ "type": "Feature", "properties": { "state": "Odisha", "district": "Koraput", "block": "Koraput", "village": "Tiadiput", "lgd_code": "428992", "latitude": 18.733186884729889, "longitude": 82.74910408899477, "coordinate_source": "lgd_master", "village_id": 10, "airtel_score": "Moderate", "bsnl_score": "Strong", "jio_score": "Weak", "vodafone_idea_score": "Weak", "airtel_nearest_km": 2.9694827619255917, "bsnl_nearest_km": 1.3744505465820351, "jio_nearest_km": 5.2699736301380726, "vodafone_idea_nearest_km": 8.5388893852157111 }, "geometry": { "type": "Point", "coordinates": [ 82.74910408899477, 18.733186884729889 ] } },
{ "type": "Feature", "properties": { "state": "Odisha", "district": "Koraput", "block": "Koraput", "village": "Bogeipodar", "lgd_code": "428967", "latitude": 18.842182127026319, "longitude": 82.645094368170874, "coordinate_source": "lgd_master", "village_id": 11, "airtel_score": "Strong", "bsnl_score": "Strong", "jio_score": "Weak", "vodafone_idea_score": "Weak", "airtel_nearest_km": 1.4441247028583755, "bsnl_nearest_km": 1.4441247028583755, "jio_nearest_km": 6.1317193780414811, "vodafone_idea_nearest_km": 8.1555330156137931 }, "geometry": { "type": "Point", "coordinates": [ 82.645094368170874, 18.842182127026319 ] } },
{ "type": "Feature", "properties": { "state": "Odisha", "district": "Koraput", "block": "Koraput", "village": "Devighat", "lgd_code": "428968", "latitude": 18.834460010953741, "longitude": 82.628775852192788, "coordinate_source": "lgd_master", "village_id": 12, "airtel_score": "Strong", "bsnl_score": "Strong", "jio_score": "Moderate", "vodafone_idea_score": "Weak", "airtel_nearest_km": 0.51024201669343394, "bsnl_nearest_km": 0.51024201669343394, "jio_nearest_km": 4.9688386745870243, "vodafone_idea_nearest_km": 6.808547650578463 }, "geometry": { "type": "Point", "coordinates": [ 82.628775852192788, 18.834460010953741 ] } },
{ "type": "Feature", "properties": { "state": "Odisha", "district": "Koraput", "block": "Koraput", "village": "Doudapadar", "lgd_code": "428970", "latitude": 18.821848972128549, "longitude": 82.601634485474648, "coordinate_source": "lgd_master", "village_id": 13, "airtel_score": "Strong", "bsnl_score": "Moderate", "jio_score": "Moderate", "vodafone_idea_score": "Weak", "airtel_nearest_km": 1.5803510384817632, "bsnl_nearest_km": 2.0164130140413477, "jio_nearest_km": 4.397136987003722, "vodafone_idea_nearest_km": 5.3801214367495396 }, "geometry": { "type": "Point", "coordinates": [ 82.601634485474648, 18.821848972128549 ] } },
{ "type": "Feature", "properties": { "state": "Odisha", "district": "Koraput", "block": "Koraput", "village": "Lauriguda", "lgd_code": "428969", "latitude": 18.822528566600059, "longitude": 82.61955367334059, "coordinate_source": "lgd_master", "village_id": 14, "airtel_score": "Strong", "bsnl_score": "Strong", "jio_score": "Weak", "vodafone_idea_score": "Weak", "airtel_nearest_km": 0.82831683944568424, "bsnl_nearest_km": 1.3769972451121004, "jio_nearest_km": 5.1867576901256012, "vodafone_idea_nearest_km": 6.6688754193752517 }, "geometry": { "type": "Point", "coordinates": [ 82.61955367334059, 18.822528566600059 ] } },
{ "type": "Feature", "properties": { "state": "Odisha", "district": "Koraput", "block": "Koraput", "village": "Challor", "lgd_code": "429993", "latitude": 18.73303235115716, "longitude": 82.96006598169285, "coordinate_source": "lgd_master", "village_id": 15, "airtel_score": "Moderate", "bsnl_score": "Moderate", "jio_score": "Moderate", "vodafone_idea_score": "Weak", "airtel_nearest_km": 4.3550881208007066, "bsnl_nearest_km": 3.1888484818958691, "jio_nearest_km": 4.6242676680069623, "vodafone_idea_nearest_km": 5.1736878834437379 }, "geometry": { "type": "Point", "coordinates": [ 82.96006598169285, 18.73303235115716 ] } },
{ "type": "Feature", "properties": { "state": "Odisha", "district": "Koraput", "block": "Koraput", "village": "Dumuripadar", "lgd_code": "429988", "latitude": 18.757785769335069, "longitude": 82.981403099143989, "coordinate_source": "lgd_master", "village_id": 16, "airtel_score": "Weak", "bsnl_score": "Weak", "jio_score": "Weak", "vodafone_idea_score": "Weak", "airtel_nearest_km": 5.1896991638794319, "bsnl_nearest_km": 5.4263025561009401, "jio_nearest_km": 6.4799434515978467, "vodafone_idea_nearest_km": 6.4799434515978467 }, "geometry": { "type": "Point", "coordinates": [ 82.981403099143989, 18.757785769335069 ] } },
{ "type": "Feature", "properties": { "state": "Odisha", "district": "Koraput", "block": "Koraput", "village": "Hatimunda", "lgd_code": "429998", "latitude": 18.731365426312081, "longitude": 83.008586048523, "coordinate_source": "lgd_master", "village_id": 17, "airtel_score": "Weak", "bsnl_score": "Weak", "jio_score": "Weak", "vodafone_idea_score": "Weak", "airtel_nearest_km": 8.8736003510282391, "bsnl_nearest_km": 8.2901845579250164, "jio_nearest_km": 9.5680069698878896, "vodafone_idea_nearest_km": 9.8658285102903509 }, "geometry": { "type": "Point", "coordinates": [ 83.008586048523, 18.731365426312081 ] } },
{ "type": "Feature", "properties": { "state": "Odisha", "district": "Koraput", "block": "Koraput", "village": "Janjanaguda", "lgd_code": "429999", "latitude": 18.751298838888449, "longitude": 83.008234170237543, "coordinate_source": "lgd_master", "village_id": 18, "airtel_score": "Weak", "bsnl_score": "Weak", "jio_score": "Weak", "vodafone_idea_score": "Weak", "airtel_nearest_km": 7.4119387541732307, "bsnl_nearest_km": 8.3065175501050792, "jio_nearest_km": 9.3064251450562026, "vodafone_idea_nearest_km": 9.3547644951309277 }, "geometry": { "type": "Point", "coordinates": [ 83.008234170237543, 18.751298838888449 ] } },
{ "type": "Feature", "properties": { "state": "Odisha", "district": "Koraput", "block": "Koraput", "village": "Keragam", "lgd_code": "429987", "latitude": 18.758197495990871, "longitude": 82.979624778782878, "coordinate_source": "lgd_master", "village_id": 19, "airtel_score": "Weak", "bsnl_score": "Weak", "jio_score": "Weak", "vodafone_idea_score": "Weak", "airtel_nearest_km": 5.069298742947888, "bsnl_nearest_km": 5.2370228308224043, "jio_nearest_km": 6.2909264068548287, "vodafone_idea_nearest_km": 6.2909264068548287 }, "geometry": { "type": "Point", "coordinates": [ 82.979624778782878, 18.758197495990871 ] } },
{ "type": "Feature", "properties": { "state": "Odisha", "district": "Koraput", "block": "Koraput", "village": "Khagadora", "lgd_code": "429986", "latitude": 18.773194492855168, "longitude": 82.976644755448703, "coordinate_source": "lgd_master", "village_id": 20, "airtel_score": "Moderate", "bsnl_score": "Weak", "jio_score": "Weak", "vodafone_idea_score": "Weak", "airtel_nearest_km": 3.4476101558880874, "bsnl_nearest_km": 5.1310367724970902, "jio_nearest_km": 5.983515395822403, "vodafone_idea_nearest_km": 5.983515395822403 }, "geometry": { "type": "Point", "coordinates": [ 82.976644755448703, 18.773194492855168 ] } },
{ "type": "Feature", "properties": { "state": "Odisha", "district": "Koraput", "block": "Koraput", "village": "Matiagumandi", "lgd_code": "430001", "latitude": 18.730328458249431, "longitude": 83.033675442923169, "coordinate_source": "lgd_master", "village_id": 21, "airtel_score": "Unknown", "bsnl_score": "Unknown", "jio_score": "Unknown", "vodafone_idea_score": "Unknown", "airtel_nearest_km": null, "bsnl_nearest_km": null, "jio_nearest_km": null, "vodafone_idea_nearest_km": null }, "geometry": { "type": "Point", "coordinates": [ 83.033675442923169, 18.730328458249431 ] } },
{ "type": "Feature", "properties": { "state": "Odisha", "district": "Koraput", "block": "Koraput", "village": "Palijodipodar", "lgd_code": "430000", "latitude": 18.743471695698592, "longitude": 83.015203383744975, "coordinate_source": "lgd_master", "village_id": 22, "airtel_score": "Weak", "bsnl_score": "Weak", "jio_score": "Moderate", "vodafone_idea_score": "Moderate", "airtel_nearest_km": 8.5468380824016652, "bsnl_nearest_km": 9.1093720124142905, "jio_nearest_km": null, "vodafone_idea_nearest_km": null }, "geometry": { "type": "Point", "coordinates": [ 83.015203383744975, 18.743471695698592 ] } },
{ "type": "Feature", "properties": { "state": "Odisha", "district": "Koraput", "block": "Koraput", "village": "Pendajam", "lgd_code": "429996", "latitude": 18.721357076780681, "longitude": 82.989960958658713, "coordinate_source": "lgd_master", "village_id": 23, "airtel_score": "Weak", "bsnl_score": "Weak", "jio_score": "Weak", "vodafone_idea_score": "Weak", "airtel_nearest_km": 7.6349533610506084, "bsnl_nearest_km": 6.3964577677322723, "jio_nearest_km": 8.0312572898574093, "vodafone_idea_nearest_km": 8.5290009520370038 }, "geometry": { "type": "Point", "coordinates": [ 82.989960958658713, 18.721357076780681 ] } },
{ "type": "Feature", "properties": { "state": "Odisha", "district": "Koraput", "block": "Koraput", "village": "Bagra", "lgd_code": "428891", "latitude": 18.91957837965839, "longitude": 82.686829154814717, "coordinate_source": "lgd_master", "village_id": 24, "airtel_score": "Unknown", "bsnl_score": "Weak", "jio_score": "Unknown", "vodafone_idea_score": "Unknown", "airtel_nearest_km": null, "bsnl_nearest_km": 7.7351317169605069, "jio_nearest_km": null, "vodafone_idea_nearest_km": null }, "geometry": { "type": "Point", "coordinates": [ 82.686829154814717, 18.91957837965839 ] } },
{ "type": "Feature", "properties": { "state": "Odisha", "district": "Koraput", "block": "Koraput", "village": "Bondakotra", "lgd_code": "428892", "latitude": 18.912123481250902, "longitude": 82.713421384803368, "coordinate_source": "lgd_master", "village_id": 25, "airtel_score": "Unknown", "bsnl_score": "Weak", "jio_score": "Unknown", "vodafone_idea_score": "Unknown", "airtel_nearest_km": null, "bsnl_nearest_km": 7.7256992877767203, "jio_nearest_km": null, "vodafone_idea_nearest_km": null }, "geometry": { "type": "Point", "coordinates": [ 82.713421384803368, 18.912123481250902 ] } },
{ "type": "Feature", "properties": { "state": "Odisha", "district": "Koraput", "block": "Koraput", "village": "Dakra", "lgd_code": "428890", "latitude": 18.925794743263399, "longitude": 82.690518432659275, "coordinate_source": "lgd_master", "village_id": 26, "airtel_score": "Unknown", "bsnl_score": "Weak", "jio_score": "Unknown", "vodafone_idea_score": "Unknown", "airtel_nearest_km": null, "bsnl_nearest_km": 8.4625674952751435, "jio_nearest_km": null, "vodafone_idea_nearest_km": null }, "geometry": { "type": "Point", "coordinates": [ 82.690518432659275, 18.925794743263399 ] } },
{ "type": "Feature", "properties": { "state": "Odisha", "district": "Koraput", "block": "Koraput", "village": "Kendar", "lgd_code": "428918", "latitude": 18.890472033752051, "longitude": 82.701783577368928, "coordinate_source": "lgd_master", "village_id": 27, "airtel_score": "Weak", "bsnl_score": "Weak", "jio_score": "Weak", "vodafone_idea_score": "Moderate", "airtel_nearest_km": 7.8028141605761956, "bsnl_nearest_km": 5.0336614931470001, "jio_nearest_km": 8.9494541688353948, "vodafone_idea_nearest_km": null }, "geometry": { "type": "Point", "coordinates": [ 82.701783577368928, 18.890472033752051 ] } },
{ "type": "Feature", "properties": { "state": "Odisha", "district": "Koraput", "block": "Koraput", "village": "Mangara", "lgd_code": "428920", "latitude": 18.88672051746974, "longitude": 82.67721543908273, "coordinate_source": "lgd_master", "village_id": 28, "airtel_score": "Weak", "bsnl_score": "Moderate", "jio_score": "Weak", "vodafone_idea_score": "Moderate", "airtel_nearest_km": 6.9023115987872332, "bsnl_nearest_km": 4.0751349219506725, "jio_nearest_km": 9.1681032193154248, "vodafone_idea_nearest_km": null }, "geometry": { "type": "Point", "coordinates": [ 82.67721543908273, 18.88672051746974 ] } },
{ "type": "Feature", "properties": { "state": "Odisha", "district": "Koraput", "block": "Koraput", "village": "Kerenga", "lgd_code": "428971", "latitude": 18.796867486601041, "longitude": 82.617809444272453, "coordinate_source": "lgd_master", "village_id": 29, "airtel_score": "Strong", "bsnl_score": "Moderate", "jio_score": "Weak", "vodafone_idea_score": "Weak", "airtel_nearest_km": 1.67048749813192, "bsnl_nearest_km": 3.8858873871264121, "jio_nearest_km": 7.1117448969159005, "vodafone_idea_nearest_km": 8.6150390867803797 }, "geometry": { "type": "Point", "coordinates": [ 82.617809444272453, 18.796867486601041 ] } },
{ "type": "Feature", "properties": { "state": "Odisha", "district": "Koraput", "block": "Koraput", "village": "Puki", "lgd_code": "428978", "latitude": 18.774912924701201, "longitude": 82.588145046447693, "coordinate_source": "lgd_master", "village_id": 30, "airtel_score": "Moderate", "bsnl_score": "Weak", "jio_score": "Weak", "vodafone_idea_score": "Weak", "airtel_nearest_km": 4.5155374611115784, "bsnl_nearest_km": 6.3905851417971418, "jio_nearest_km": 6.155700518529807, "vodafone_idea_nearest_km": 9.6099622650088552 }, "geometry": { "type": "Point", "coordinates": [ 82.588145046447693, 18.774912924701201 ] } },
{ "type": "Feature", "properties": { "state": "Odisha", "district": "Koraput", "block": "Koraput", "village": "Putkeranga", "lgd_code": "428977", "latitude": 18.771294899289551, "longitude": 82.633016238780186, "coordinate_source": "lgd_master", "village_id": 31, "airtel_score": "Moderate", "bsnl_score": "Weak", "jio_score": "Weak", "vodafone_idea_score": "Moderate", "airtel_nearest_km": 4.9234677363736603, "bsnl_nearest_km": 6.5055997770130585, "jio_nearest_km": 9.1771026973079355, "vodafone_idea_nearest_km": null }, "geometry": { "type": "Point", "coordinates": [ 82.633016238780186, 18.771294899289551 ] } },
{ "type": "Feature", "properties": { "state": "Odisha", "district": "Koraput", "block": "Koraput", "village": "Chandalaguda", "lgd_code": "428984", "latitude": 18.76110817910234, "longitude": 82.690487856532599, "coordinate_source": "lgd_master", "village_id": 32, "airtel_score": "Moderate", "bsnl_score": "Moderate", "jio_score": "Weak", "vodafone_idea_score": "Moderate", "airtel_nearest_km": 4.4619445185044118, "bsnl_nearest_km": 4.4619445185044118, "jio_nearest_km": 5.251837666410097, "vodafone_idea_nearest_km": null }, "geometry": { "type": "Point", "coordinates": [ 82.690487856532599, 18.76110817910234 ] } },
{ "type": "Feature", "properties": { "state": "Odisha", "district": "Koraput", "block": "Koraput", "village": "Kechala", "lgd_code": "428979", "latitude": 18.754536940475521, "longitude": 82.630205602456542, "coordinate_source": "lgd_master", "village_id": 33, "airtel_score": "Weak", "bsnl_score": "Weak", "jio_score": "Moderate", "vodafone_idea_score": "Moderate", "airtel_nearest_km": 6.4980058972323205, "bsnl_nearest_km": 8.3527104656928124, "jio_nearest_km": null, "vodafone_idea_nearest_km": null }, "geometry": { "type": "Point", "coordinates": [ 82.630205602456542, 18.754536940475521 ] } },
{ "type": "Feature", "properties": { "state": "Odisha", "district": "Koraput", "block": "Koraput", "village": "Kholap", "lgd_code": "428988", "latitude": 18.750705845155149, "longitude": 82.705068023832311, "coordinate_source": "lgd_master", "village_id": 34, "airtel_score": "Moderate", "bsnl_score": "Moderate", "jio_score": "Moderate", "vodafone_idea_score": "Moderate", "airtel_nearest_km": 4.257690942353423, "bsnl_nearest_km": 3.8243965039045711, "jio_nearest_km": 4.9071705756069512, "vodafone_idea_nearest_km": null }, "geometry": { "type": "Point", "coordinates": [ 82.705068023832311, 18.750705845155149 ] } },
{ "type": "Feature", "properties": { "state": "Odisha", "district": "Koraput", "block": "Koraput", "village": "Lankaput", "lgd_code": "428982", "latitude": 18.77952650352421, "longitude": 82.678606758427762, "coordinate_source": "lgd_master", "village_id": 35, "airtel_score": "Moderate", "bsnl_score": "Moderate", "jio_score": "Moderate", "vodafone_idea_score": "Moderate", "airtel_nearest_km": 4.0110909178711474, "bsnl_nearest_km": 4.0110909178711474, "jio_nearest_km": 4.7254904511821971, "vodafone_idea_nearest_km": null }, "geometry": { "type": "Point", "coordinates": [ 82.678606758427762, 18.77952650352421 ] } },
{ "type": "Feature", "properties": { "state": "Odisha", "district": "Koraput", "block": "Koraput", "village": "Paidaput", "lgd_code": "428986", "latitude": 18.723934805134611, "longitude": 82.670468169411691, "coordinate_source": "lgd_master", "village_id": 36, "airtel_score": "Weak", "bsnl_score": "Weak", "jio_score": "Weak", "vodafone_idea_score": "Moderate", "airtel_nearest_km": 8.930796947542305, "bsnl_nearest_km": 8.3486300809493947, "jio_nearest_km": 9.6056794392463143, "vodafone_idea_nearest_km": null }, "geometry": { "type": "Point", "coordinates": [ 82.670468169411691, 18.723934805134611 ] } },
{ "type": "Feature", "properties": { "state": "Odisha", "district": "Koraput", "block": "Koraput", "village": "Pandi", "lgd_code": "428981", "latitude": 18.768264049401139, "longitude": 82.661809742946318, "coordinate_source": "lgd_master", "village_id": 37, "airtel_score": "Weak", "bsnl_score": "Weak", "jio_score": "Weak", "vodafone_idea_score": "Moderate", "airtel_nearest_km": 5.791247976656023, "bsnl_nearest_km": 6.1278920773743968, "jio_nearest_km": 6.8666991034826728, "vodafone_idea_nearest_km": null }, "geometry": { "type": "Point", "coordinates": [ 82.661809742946318, 18.768264049401139 ] } },
{ "type": "Feature", "properties": { "state": "Odisha", "district": "Koraput", "block": "Koraput", "village": "Semala", "lgd_code": "428980", "latitude": 18.73400239901795, "longitude": 82.643920902901385, "coordinate_source": "lgd_master", "village_id": 38, "airtel_score": "Weak", "bsnl_score": "Moderate", "jio_score": "Moderate", "vodafone_idea_score": "Moderate", "airtel_nearest_km": 9.1404959008134501, "bsnl_nearest_km": null, "jio_nearest_km": null, "vodafone_idea_nearest_km": null }, "geometry": { "type": "Point", "coordinates": [ 82.643920902901385, 18.73400239901795 ] } },
{ "type": "Feature", "properties": { "state": "Odisha", "district": "Koraput", "block": "Koraput", "village": "Thatguda", "lgd_code": "428989", "latitude": 18.758698500147549, "longitude": 82.712439778453202, "coordinate_source": "lgd_master", "village_id": 39, "airtel_score": "Moderate", "bsnl_score": "Moderate", "jio_score": "Moderate", "vodafone_idea_score": "Moderate", "airtel_nearest_km": 3.163781401798476, "bsnl_nearest_km": 2.9096130568585639, "jio_nearest_km": 3.7421452906493458, "vodafone_idea_nearest_km": null }, "geometry": { "type": "Point", "coordinates": [ 82.712439778453202, 18.758698500147549 ] } },
{ "type": "Feature", "properties": { "state": "Odisha", "district": "Koraput", "block": "Koraput", "village": "Amalabadi", "lgd_code": "429991", "latitude": 18.768120542718631, "longitude": 82.93884457234762, "coordinate_source": "lgd_master", "village_id": 40, "airtel_score": "Strong", "bsnl_score": "Strong", "jio_score": "Strong", "vodafone_idea_score": "Strong", "airtel_nearest_km": 1.2953796718844859, "bsnl_nearest_km": 1.2953796718844859, "jio_nearest_km": 1.9979879444567616, "vodafone_idea_nearest_km": 1.9979879444567616 }, "geometry": { "type": "Point", "coordinates": [ 82.93884457234762, 18.768120542718631 ] } },
{ "type": "Feature", "properties": { "state": "Odisha", "district": "Koraput", "block": "Koraput", "village": "Ambagaon", "lgd_code": "429982", "latitude": 18.785360431069432, "longitude": 82.92815772117423, "coordinate_source": "lgd_master", "village_id": 41, "airtel_score": "Strong", "bsnl_score": "Strong", "jio_score": "Strong", "vodafone_idea_score": "Strong", "airtel_nearest_km": 1.9056041793059819, "bsnl_nearest_km": 1.9056041793059819, "jio_nearest_km": 1.9056041793059819, "vodafone_idea_nearest_km": 1.9056041793059819 }, "geometry": { "type": "Point", "coordinates": [ 82.92815772117423, 18.785360431069432 ] } },
{ "type": "Feature", "properties": { "state": "Odisha", "district": "Koraput", "block": "Koraput", "village": "Ariputraghati", "lgd_code": "429983", "latitude": 18.789745167412331, "longitude": 82.949332057312517, "coordinate_source": "lgd_master", "village_id": 42, "airtel_score": "Strong", "bsnl_score": "Moderate", "jio_score": "Moderate", "vodafone_idea_score": "Moderate", "airtel_nearest_km": 1.5980811306040412, "bsnl_nearest_km": 3.7872692902860803, "jio_nearest_km": 3.7872692902860803, "vodafone_idea_nearest_km": 3.7872692902860803 }, "geometry": { "type": "Point", "coordinates": [ 82.949332057312517, 18.789745167412331 ] } },
{ "type": "Feature", "properties": { "state": "Odisha", "district": "Koraput", "block": "Koraput", "village": "Bhejaput", "lgd_code": "429985", "latitude": 18.810622594303599, "longitude": 82.9723623499046, "coordinate_source": "lgd_master", "village_id": 43, "airtel_score": "Strong", "bsnl_score": "Weak", "jio_score": "Weak", "vodafone_idea_score": "Weak", "airtel_nearest_km": 1.7554414023557379, "bsnl_nearest_km": 7.1206286577252431, "jio_nearest_km": 7.1206286577252431, "vodafone_idea_nearest_km": 7.1206286577252431 }, "geometry": { "type": "Point", "coordinates": [ 82.9723623499046, 18.810622594303599 ] } },
{ "type": "Feature", "properties": { "state": "Odisha", "district": "Koraput", "block": "Koraput", "village": "Kandhaputraghati", "lgd_code": "429990", "latitude": 18.77539350263547, "longitude": 82.952811163657856, "coordinate_source": "lgd_master", "village_id": 44, "airtel_score": "Moderate", "bsnl_score": "Moderate", "jio_score": "Moderate", "vodafone_idea_score": "Moderate", "airtel_nearest_km": 2.8275143137695373, "bsnl_nearest_km": 2.9478871003326046, "jio_nearest_km": 3.5109566608147906, "vodafone_idea_nearest_km": 3.5109566608147906 }, "geometry": { "type": "Point", "coordinates": [ 82.952811163657856, 18.77539350263547 ] } },
{ "type": "Feature", "properties": { "state": "Odisha", "district": "Koraput", "block": "Koraput", "village": "Karadiguda", "lgd_code": "429984", "latitude": 18.789299177211898, "longitude": 82.96304610263185, "coordinate_source": "lgd_master", "village_id": 45, "airtel_score": "Strong", "bsnl_score": "Moderate", "jio_score": "Weak", "vodafone_idea_score": "Weak", "airtel_nearest_km": 1.2273855043719641, "bsnl_nearest_km": 4.7605139315449074, "jio_nearest_km": 5.0165626030204677, "vodafone_idea_nearest_km": 5.0165626030204677 }, "geometry": { "type": "Point", "coordinates": [ 82.96304610263185, 18.789299177211898 ] } },
{ "type": "Feature", "properties": { "state": "Odisha", "district": "Koraput", "block": "Koraput", "village": "Lachamani", "lgd_code": "429989", "latitude": 18.765597878016511, "longitude": 82.953146781281006, "coordinate_source": "lgd_master", "village_id": 46, "airtel_score": "Moderate", "bsnl_score": "Moderate", "jio_score": "Moderate", "vodafone_idea_score": "Moderate", "airtel_nearest_km": 2.518328021838113, "bsnl_nearest_km": 2.518328021838113, "jio_nearest_km": 3.52911466832649, "vodafone_idea_nearest_km": 3.52911466832649 }, "geometry": { "type": "Point", "coordinates": [ 82.953146781281006, 18.765597878016511 ] } },
{ "type": "Feature", "properties": { "state": "Odisha", "district": "Koraput", "block": "Koraput", "village": "Damanjodi (Ct)", "lgd_code": "429994", "latitude": 18.763477770390939, "longitude": 82.914245969724348, "coordinate_source": "lgd_master", "village_id": 47, "airtel_score": "Strong", "bsnl_score": "Strong", "jio_score": "Strong", "vodafone_idea_score": "Strong", "airtel_nearest_km": 0.59050290582465192, "bsnl_nearest_km": 0.59050290582465192, "jio_nearest_km": 0.59050290582465192, "vodafone_idea_nearest_km": 0.71860545564880662 }, "geometry": { "type": "Point", "coordinates": [ 82.914245969724348, 18.763477770390939 ] } },
{ "type": "Feature", "properties": { "state": "Odisha", "district": "Koraput", "block": "Koraput", "village": "Marichamala", "lgd_code": "429992", "latitude": 18.73223686255411, "longitude": 82.919575566550961, "coordinate_source": "lgd_master", "village_id": 48, "airtel_score": "Strong", "bsnl_score": "Strong", "jio_score": "Strong", "vodafone_idea_score": "Moderate", "airtel_nearest_km": 1.9669025085183272, "bsnl_nearest_km": 1.1270201211504016, "jio_nearest_km": 1.3260712984659171, "vodafone_idea_nearest_km": 3.0737283240798736 }, "geometry": { "type": "Point", "coordinates": [ 82.919575566550961, 18.73223686255411 ] } },
{ "type": "Feature", "properties": { "state": "Odisha", "district": "Koraput", "block": "Koraput", "village": "Badamput", "lgd_code": "428962", "latitude": 18.84754320478358, "longitude": 82.721603695727936, "coordinate_source": "lgd_master", "village_id": 49, "airtel_score": "Moderate", "bsnl_score": "Moderate", "jio_score": "Moderate", "vodafone_idea_score": "Moderate", "airtel_nearest_km": 3.8051895699053246, "bsnl_nearest_km": 3.0534611474047271, "jio_nearest_km": 4.331908393631438, "vodafone_idea_nearest_km": null }, "geometry": { "type": "Point", "coordinates": [ 82.721603695727936, 18.84754320478358 ] } },
{ "type": "Feature", "properties": { "state": "Odisha", "district": "Koraput", "block": "Koraput", "village": "Belaput", "lgd_code": "428921", "latitude": 18.869679705557921, "longitude": 82.711885892797554, "coordinate_source": "lgd_master", "village_id": 50, "airtel_score": "Weak", "bsnl_score": "Moderate", "jio_score": "Weak", "vodafone_idea_score": "Moderate", "airtel_nearest_km": 5.6399214547951466, "bsnl_nearest_km": 4.0044393268874412, "jio_nearest_km": 6.6089572340260396, "vodafone_idea_nearest_km": null }, "geometry": { "type": "Point", "coordinates": [ 82.711885892797554, 18.869679705557921 ] } },
{ "type": "Feature", "properties": { "state": "Odisha", "district": "Koraput", "block": "Koraput", "village": "Chatiguda", "lgd_code": "428915", "latitude": 18.89915338875419, "longitude": 82.731070048225263, "coordinate_source": "lgd_master", "village_id": 51, "airtel_score": "Weak", "bsnl_score": "Weak", "jio_score": "Unknown", "vodafone_idea_score": "Unknown", "airtel_nearest_km": 9.3533435701221883, "bsnl_nearest_km": 7.6524893366578741, "jio_nearest_km": null, "vodafone_idea_nearest_km": null }, "geometry": { "type": "Point", "coordinates": [ 82.731070048225263, 18.89915338875419 ] } },
{ "type": "Feature", "properties": { "state": "Odisha", "district": "Koraput", "block": "Koraput", "village": "Dolaiput", "lgd_code": "428926", "latitude": 18.862066951612441, "longitude": 82.749400358539546, "coordinate_source": "lgd_master", "village_id": 52, "airtel_score": "Weak", "bsnl_score": "Moderate", "jio_score": "Weak", "vodafone_idea_score": "Unknown", "airtel_nearest_km": 6.5435685061078503, "bsnl_nearest_km": 3.5501323935341871, "jio_nearest_km": 7.1035668608934071, "vodafone_idea_nearest_km": null }, "geometry": { "type": "Point", "coordinates": [ 82.749400358539546, 18.862066951612441 ] } },
{ "type": "Feature", "properties": { "state": "Odisha", "district": "Koraput", "block": "Koraput", "village": "Doliamba", "lgd_code": "428913", "latitude": 18.88620838297058, "longitude": 82.753950106721149, "coordinate_source": "lgd_master", "village_id": 53, "airtel_score": "Weak", "bsnl_score": "Weak", "jio_score": "Weak", "vodafone_idea_score": "Unknown", "airtel_nearest_km": 9.1630704367747935, "bsnl_nearest_km": 5.8050691372768526, "jio_nearest_km": 9.6235968047842562, "vodafone_idea_nearest_km": null }, "geometry": { "type": "Point", "coordinates": [ 82.753950106721149, 18.88620838297058 ] } },
{ "type": "Feature", "properties": { "state": "Odisha", "district": "Koraput", "block": "Koraput", "village": "Ekdili", "lgd_code": "428925", "latitude": 18.871740052877389, "longitude": 82.74379571597899, "coordinate_source": "lgd_master", "village_id": 54, "airtel_score": "Weak", "bsnl_score": "Moderate", "jio_score": "Weak", "vodafone_idea_score": "Unknown", "airtel_nearest_km": 7.2797280769461752, "bsnl_nearest_km": 4.6663418087736357, "jio_nearest_km": 7.7065701573714511, "vodafone_idea_nearest_km": null }, "geometry": { "type": "Point", "coordinates": [ 82.74379571597899, 18.871740052877389 ] } },
{ "type": "Feature", "properties": { "state": "Odisha", "district": "Koraput", "block": "Koraput", "village": "Karanjiguda", "lgd_code": "428922", "latitude": 18.878343565125199, "longitude": 82.719431621665819, "coordinate_source": "lgd_master", "village_id": 55, "airtel_score": "Weak", "bsnl_score": "Weak", "jio_score": "Weak", "vodafone_idea_score": "Unknown", "airtel_nearest_km": 6.7749774453795659, "bsnl_nearest_km": 5.2065787795583214, "jio_nearest_km": 7.6300138246601676, "vodafone_idea_nearest_km": null }, "geometry": { "type": "Point", "coordinates": [ 82.719431621665819, 18.878343565125199 ] } },
{ "type": "Feature", "properties": { "state": "Odisha", "district": "Koraput", "block": "Koraput", "village": "Kerengaguda", "lgd_code": "428914", "latitude": 18.873095893692732, "longitude": 82.760839215976247, "coordinate_source": "lgd_master", "village_id": 56, "airtel_score": "Weak", "bsnl_score": "Moderate", "jio_score": "Weak", "vodafone_idea_score": "Unknown", "airtel_nearest_km": 8.2039599783567727, "bsnl_nearest_km": 4.1831440917180931, "jio_nearest_km": 8.8027226654547235, "vodafone_idea_nearest_km": null }, "geometry": { "type": "Point", "coordinates": [ 82.760839215976247, 18.873095893692732 ] } },
{ "type": "Feature", "properties": { "state": "Odisha", "district": "Koraput", "block": "Koraput", "village": "Litiguda", "lgd_code": "428894", "latitude": 18.91516866170149, "longitude": 82.73533549307939, "coordinate_source": "lgd_master", "village_id": 57, "airtel_score": "Unknown", "bsnl_score": "Weak", "jio_score": "Unknown", "vodafone_idea_score": "Unknown", "airtel_nearest_km": null, "bsnl_nearest_km": 9.2752222848332355, "jio_nearest_km": null, "vodafone_idea_nearest_km": null }, "geometry": { "type": "Point", "coordinates": [ 82.73533549307939, 18.91516866170149 ] } },
{ "type": "Feature", "properties": { "state": "Odisha", "district": "Koraput", "block": "Koraput", "village": "Machhara-Ii", "lgd_code": "428960", "latitude": 18.84913086794268, "longitude": 82.735438082665581, "coordinate_source": "lgd_master", "village_id": 58, "airtel_score": "Moderate", "bsnl_score": "Moderate", "jio_score": "Weak", "vodafone_idea_score": "Moderate", "airtel_nearest_km": 4.6269915316058752, "bsnl_nearest_km": 2.6153032067122632, "jio_nearest_km": 5.0941050498786726, "vodafone_idea_nearest_km": null }, "geometry": { "type": "Point", "coordinates": [ 82.735438082665581, 18.84913086794268 ] } },
{ "type": "Feature", "properties": { "state": "Odisha", "district": "Koraput", "block": "Koraput", "village": "Mahadeiput", "lgd_code": "428923", "latitude": 18.873545519194209, "longitude": 82.730177672575309, "coordinate_source": "lgd_master", "village_id": 59, "airtel_score": "Weak", "bsnl_score": "Weak", "jio_score": "Weak", "vodafone_idea_score": "Unknown", "airtel_nearest_km": 6.7263648921321142, "bsnl_nearest_km": 5.2533522560654395, "jio_nearest_km": 7.3483411843144992, "vodafone_idea_nearest_km": null }, "geometry": { "type": "Point", "coordinates": [ 82.730177672575309, 18.873545519194209 ] } },
{ "type": "Feature", "properties": { "state": "Odisha", "district": "Koraput", "block": "Koraput", "village": "Mandaguda", "lgd_code": "428961", "latitude": 18.86088361928643, "longitude": 82.727057978255743, "coordinate_source": "lgd_master", "village_id": 60, "airtel_score": "Weak", "bsnl_score": "Moderate", "jio_score": "Weak", "vodafone_idea_score": "Unknown", "airtel_nearest_km": 5.3489908096580736, "bsnl_nearest_km": 4.1872041907207729, "jio_nearest_km": 5.9123184219613369, "vodafone_idea_nearest_km": null }, "geometry": { "type": "Point", "coordinates": [ 82.727057978255743, 18.86088361928643 ] } },
{ "type": "Feature", "properties": { "state": "Odisha", "district": "Koraput", "block": "Koraput", "village": "Panasput", "lgd_code": "428917", "latitude": 18.89293248351812, "longitude": 82.721042636867807, "coordinate_source": "lgd_master", "village_id": 61, "airtel_score": "Weak", "bsnl_score": "Weak", "jio_score": "Weak", "vodafone_idea_score": "Unknown", "airtel_nearest_km": 8.3719566127825189, "bsnl_nearest_km": 6.4254919465272522, "jio_nearest_km": 9.2533262008620198, "vodafone_idea_nearest_km": null }, "geometry": { "type": "Point", "coordinates": [ 82.721042636867807, 18.89293248351812 ] } },
{ "type": "Feature", "properties": { "state": "Odisha", "district": "Koraput", "block": "Koraput", "village": "Putpandi", "lgd_code": "428924", "latitude": 18.88194234001546, "longitude": 82.736555241976731, "coordinate_source": "lgd_master", "village_id": 62, "airtel_score": "Weak", "bsnl_score": "Weak", "jio_score": "Weak", "vodafone_idea_score": "Unknown", "airtel_nearest_km": 7.8646023643448846, "bsnl_nearest_km": 5.9216179332050309, "jio_nearest_km": 8.4408358368662597, "vodafone_idea_nearest_km": null }, "geometry": { "type": "Point", "coordinates": [ 82.736555241976731, 18.88194234001546 ] } },
{ "type": "Feature", "properties": { "state": "Odisha", "district": "Koraput", "block": "Koraput", "village": "Rengaguda", "lgd_code": "428927", "latitude": 18.873095893692732, "longitude": 82.760839215976247, "coordinate_source": "lgd_master", "village_id": 63, "airtel_score": "Weak", "bsnl_score": "Moderate", "jio_score": "Weak", "vodafone_idea_score": "Unknown", "airtel_nearest_km": 8.2039599783567727, "bsnl_nearest_km": 4.1831440917180931, "jio_nearest_km": 8.8027226654547235, "vodafone_idea_nearest_km": null }, "geometry": { "type": "Point", "coordinates": [ 82.760839215976247, 18.873095893692732 ] } },
{ "type": "Feature", "properties": { "state": "Odisha", "district": "Koraput", "block": "Koraput", "village": "Thatpadar", "lgd_code": "428916", "latitude": 18.904902214410509, "longitude": 82.722669536224501, "coordinate_source": "lgd_master", "village_id": 64, "airtel_score": "Weak", "bsnl_score": "Weak", "jio_score": "Unknown", "vodafone_idea_score": "Unknown", "airtel_nearest_km": 9.6967463561850344, "bsnl_nearest_km": 7.5594912020625928, "jio_nearest_km": null, "vodafone_idea_nearest_km": null }, "geometry": { "type": "Point", "coordinates": [ 82.722669536224501, 18.904902214410509 ] } },
{ "type": "Feature", "properties": { "state": "Odisha", "district": "Koraput", "block": "Koraput", "village": "Jerty", "lgd_code": "428919", "latitude": 18.875639932522461, "longitude": 82.665464715827525, "coordinate_source": "lgd_master", "village_id": 65, "airtel_score": "Weak", "bsnl_score": "Moderate", "jio_score": "Weak", "vodafone_idea_score": "Moderate", "airtel_nearest_km": 5.3081475810046692, "bsnl_nearest_km": 3.2249886270094308, "jio_nearest_km": 8.1380490275679307, "vodafone_idea_nearest_km": null }, "geometry": { "type": "Point", "coordinates": [ 82.665464715827525, 18.875639932522461 ] } },
{ "type": "Feature", "properties": { "state": "Odisha", "district": "Koraput", "block": "Koraput", "village": "Manbar", "lgd_code": "428998", "latitude": 18.83216994147649, "longitude": 82.686604962215839, "coordinate_source": "lgd_master", "village_id": 66, "airtel_score": "Strong", "bsnl_score": "Strong", "jio_score": "Moderate", "vodafone_idea_score": "Moderate", "airtel_nearest_km": 1.3937966667575727, "bsnl_nearest_km": 1.3937966667575727, "jio_nearest_km": 3.4789053777445589, "vodafone_idea_nearest_km": null }, "geometry": { "type": "Point", "coordinates": [ 82.686604962215839, 18.83216994147649 ] } },
{ "type": "Feature", "properties": { "state": "Odisha", "district": "Koraput", "block": "Koraput", "village": "Mendhaguda", "lgd_code": "428965", "latitude": 18.856785864339219, "longitude": 82.66373849331417, "coordinate_source": "lgd_master", "village_id": 67, "airtel_score": "Moderate", "bsnl_score": "Strong", "jio_score": "Weak", "vodafone_idea_score": "Weak", "airtel_nearest_km": 3.2995057688480074, "bsnl_nearest_km": 1.8710558841366953, "jio_nearest_km": 7.112782291824983, "vodafone_idea_nearest_km": 9.8842304683019346 }, "geometry": { "type": "Point", "coordinates": [ 82.66373849331417, 18.856785864339219 ] } },
{ "type": "Feature", "properties": { "state": "Odisha", "district": "Koraput", "block": "Koraput", "village": "Basuput", "lgd_code": "428957", "latitude": 18.844787126790081, "longitude": 82.766886777417014, "coordinate_source": "lgd_master", "village_id": 68, "airtel_score": "Weak", "bsnl_score": "Strong", "jio_score": "Weak", "vodafone_idea_score": "Unknown", "airtel_nearest_km": 6.2650191640432897, "bsnl_nearest_km": 1.4801613925136654, "jio_nearest_km": 7.1259393816355621, "vodafone_idea_nearest_km": null }, "geometry": { "type": "Point", "coordinates": [ 82.766886777417014, 18.844787126790081 ] } },
{ "type": "Feature", "properties": { "state": "Odisha", "district": "Koraput", "block": "Koraput", "village": "Desnaikguda", "lgd_code": "428958", "latitude": 18.85812542432399, "longitude": 82.760000502952934, "coordinate_source": "lgd_master", "village_id": 69, "airtel_score": "Weak", "bsnl_score": "Moderate", "jio_score": "Weak", "vodafone_idea_score": "Unknown", "airtel_nearest_km": 6.7935394908586897, "bsnl_nearest_km": 2.9099979623134882, "jio_nearest_km": 7.4933175214685281, "vodafone_idea_nearest_km": null }, "geometry": { "type": "Point", "coordinates": [ 82.760000502952934, 18.85812542432399 ] } },
{ "type": "Feature", "properties": { "state": "Odisha", "district": "Koraput", "block": "Koraput", "village": "Dongri", "lgd_code": "428953", "latitude": 18.82675177949508, "longitude": 82.784271657052955, "coordinate_source": "lgd_master", "village_id": 70, "airtel_score": "Weak", "bsnl_score": "Strong", "jio_score": "Weak", "vodafone_idea_score": "Moderate", "airtel_nearest_km": 5.7730864332859371, "bsnl_nearest_km": 0.57619820802811017, "jio_nearest_km": 6.9686822415409324, "vodafone_idea_nearest_km": null }, "geometry": { "type": "Point", "coordinates": [ 82.784271657052955, 18.82675177949508 ] } },
{ "type": "Feature", "properties": { "state": "Odisha", "district": "Koraput", "block": "Koraput", "village": "Ektaguda", "lgd_code": "428959", "latitude": 18.853031519037462, "longitude": 82.744876487984271, "coordinate_source": "lgd_master", "village_id": 71, "airtel_score": "Weak", "bsnl_score": "Moderate", "jio_score": "Weak", "vodafone_idea_score": "Unknown", "airtel_nearest_km": 5.4371757835989003, "bsnl_nearest_km": 2.605970489410927, "jio_nearest_km": 6.0166942327347828, "vodafone_idea_nearest_km": null }, "geometry": { "type": "Point", "coordinates": [ 82.744876487984271, 18.853031519037462 ] } },
{ "type": "Feature", "properties": { "state": "Odisha", "district": "Koraput", "block": "Koraput", "village": "Hiridiput", "lgd_code": "428928", "latitude": 18.87409136548742, "longitude": 82.791358440128491, "coordinate_source": "lgd_master", "village_id": 72, "airtel_score": "Unknown", "bsnl_score": "Moderate", "jio_score": "Unknown", "vodafone_idea_score": "Unknown", "airtel_nearest_km": null, "bsnl_nearest_km": 3.7764510979296255, "jio_nearest_km": null, "vodafone_idea_nearest_km": null }, "geometry": { "type": "Point", "coordinates": [ 82.791358440128491, 18.87409136548742 ] } },
{ "type": "Feature", "properties": { "state": "Odisha", "district": "Koraput", "block": "Koraput", "village": "Mastiput", "lgd_code": "428956", "latitude": 18.838334942754059, "longitude": 82.751181224751861, "coordinate_source": "lgd_master", "village_id": 73, "airtel_score": "Moderate", "bsnl_score": "Strong", "jio_score": "Weak", "vodafone_idea_score": "Moderate", "airtel_nearest_km": 4.543021733818069, "bsnl_nearest_km": 0.93097673666958958, "jio_nearest_km": 5.3552132651353581, "vodafone_idea_nearest_km": null }, "geometry": { "type": "Point", "coordinates": [ 82.751181224751861, 18.838334942754059 ] } },
{ "type": "Feature", "properties": { "state": "Odisha", "district": "Koraput", "block": "Koraput", "village": "Rudhiamba", "lgd_code": "428954", "latitude": 18.83219970431605, "longitude": 82.7696633934071, "coordinate_source": "lgd_master", "village_id": 74, "airtel_score": "Weak", "bsnl_score": "Strong", "jio_score": "Weak", "vodafone_idea_score": "Unknown", "airtel_nearest_km": 5.7828843492459523, "bsnl_nearest_km": 1.1163686650769618, "jio_nearest_km": 6.2690293750020212, "vodafone_idea_nearest_km": null }, "geometry": { "type": "Point", "coordinates": [ 82.7696633934071, 18.83219970431605 ] } },
{ "type": "Feature", "properties": { "state": "Odisha", "district": "Koraput", "block": "Koraput", "village": "Tola", "lgd_code": "428952", "latitude": 18.845845662503031, "longitude": 82.807896971508782, "coordinate_source": "lgd_master", "village_id": 75, "airtel_score": "Weak", "bsnl_score": "Strong", "jio_score": "Moderate", "vodafone_idea_score": "Moderate", "airtel_nearest_km": 8.8666455041108314, "bsnl_nearest_km": 0.68399799307192022, "jio_nearest_km": null, "vodafone_idea_nearest_km": null }, "geometry": { "type": "Point", "coordinates": [ 82.807896971508782, 18.845845662503031 ] } },
{ "type": "Feature", "properties": { "state": "Odisha", "district": "Koraput", "block": "Koraput", "village": "Chougaon", "lgd_code": "429974", "latitude": 18.771154186493821, "longitude": 82.844823887147427, "coordinate_source": "lgd_master", "village_id": 76, "airtel_score": "Strong", "bsnl_score": "Moderate", "jio_score": "Moderate", "vodafone_idea_score": "Moderate", "airtel_nearest_km": 1.3353997437704197, "bsnl_nearest_km": 3.485974238396524, "jio_nearest_km": 2.3963068991686596, "vodafone_idea_nearest_km": 3.485974238396524 }, "geometry": { "type": "Point", "coordinates": [ 82.844823887147427, 18.771154186493821 ] } },
{ "type": "Feature", "properties": { "state": "Odisha", "district": "Koraput", "block": "Koraput", "village": "Dumuriput", "lgd_code": "429971", "latitude": 18.76835723548329, "longitude": 82.793923198607047, "coordinate_source": "lgd_master", "village_id": 77, "airtel_score": "Moderate", "bsnl_score": "Moderate", "jio_score": "Weak", "vodafone_idea_score": "Weak", "airtel_nearest_km": 2.1306742552703906, "bsnl_nearest_km": 2.8325613666920697, "jio_nearest_km": 5.2665332548823294, "vodafone_idea_nearest_km": 5.7010412875048297 }, "geometry": { "type": "Point", "coordinates": [ 82.793923198607047, 18.76835723548329 ] } },
{ "type": "Feature", "properties": { "state": "Odisha", "district": "Koraput", "block": "Koraput", "village": "Duruguda", "lgd_code": "429003", "latitude": 18.781930833626092, "longitude": 82.755801842829669, "coordinate_source": "lgd_master", "village_id": 78, "airtel_score": "Strong", "bsnl_score": "Strong", "jio_score": "Strong", "vodafone_idea_score": "Weak", "airtel_nearest_km": 0.49151880049749552, "bsnl_nearest_km": 1.5121186202724315, "jio_nearest_km": 1.6796585534012367, "vodafone_idea_nearest_km": 9.7088177100211475 }, "geometry": { "type": "Point", "coordinates": [ 82.755801842829669, 18.781930833626092 ] } },
{ "type": "Feature", "properties": { "state": "Odisha", "district": "Koraput", "block": "Koraput", "village": "Gopalput", "lgd_code": "429005", "latitude": 18.76788224239133, "longitude": 82.773612894875171, "coordinate_source": "lgd_master", "village_id": 79, "airtel_score": "Strong", "bsnl_score": "Strong", "jio_score": "Moderate", "vodafone_idea_score": "Weak", "airtel_nearest_km": 1.4543539112485642, "bsnl_nearest_km": 1.3943908330676664, "jio_nearest_km": 3.7893492816815013, "vodafone_idea_nearest_km": 7.2761127889823936 }, "geometry": { "type": "Point", "coordinates": [ 82.773612894875171, 18.76788224239133 ] } },
{ "type": "Feature", "properties": { "state": "Odisha", "district": "Koraput", "block": "Koraput", "village": "Limika", "lgd_code": "428999", "latitude": 18.803619966483151, "longitude": 82.772862849214221, "coordinate_source": "lgd_master", "village_id": 80, "airtel_score": "Moderate", "bsnl_score": "Strong", "jio_score": "Moderate", "vodafone_idea_score": "Weak", "airtel_nearest_km": 2.9453085212767447, "bsnl_nearest_km": 1.9630570741266293, "jio_nearest_km": 4.3403932150579525, "vodafone_idea_nearest_km": 9.985314383519567 }, "geometry": { "type": "Point", "coordinates": [ 82.772862849214221, 18.803619966483151 ] } },
{ "type": "Feature", "properties": { "state": "Odisha", "district": "Koraput", "block": "Koraput", "village": "Machhaput", "lgd_code": "429004", "latitude": 18.76335071578966, "longitude": 82.759069716219358, "coordinate_source": "lgd_master", "village_id": 81, "airtel_score": "Strong", "bsnl_score": "Strong", "jio_score": "Moderate", "vodafone_idea_score": "Weak", "airtel_nearest_km": 0.742530604574686, "bsnl_nearest_km": 1.481069297094902, "jio_nearest_km": 2.7274781757962545, "vodafone_idea_nearest_km": 8.3413580958017803 }, "geometry": { "type": "Point", "coordinates": [ 82.759069716219358, 18.76335071578966 ] } },
{ "type": "Feature", "properties": { "state": "Odisha", "district": "Koraput", "block": "Koraput", "village": "Mohanapada", "lgd_code": "429972", "latitude": 18.773724999985671, "longitude": 82.817459585698003, "coordinate_source": "lgd_master", "village_id": 82, "airtel_score": "Moderate", "bsnl_score": "Moderate", "jio_score": "Moderate", "vodafone_idea_score": "Moderate", "airtel_nearest_km": 2.0141408794056517, "bsnl_nearest_km": 3.9604957420786273, "jio_nearest_km": 3.5421062978607187, "vodafone_idea_nearest_km": 4.4256647190077301 }, "geometry": { "type": "Point", "coordinates": [ 82.817459585698003, 18.773724999985671 ] } },
{ "type": "Feature", "properties": { "state": "Odisha", "district": "Koraput", "block": "Koraput", "village": "Nighamaniguda", "lgd_code": "429002", "latitude": 18.77428298869042, "longitude": 82.783020232787393, "coordinate_source": "lgd_master", "village_id": 83, "airtel_score": "Moderate", "bsnl_score": "Strong", "jio_score": "Moderate", "vodafone_idea_score": "Weak", "airtel_nearest_km": 2.473070292660402, "bsnl_nearest_km": 1.5116293206611078, "jio_nearest_km": 4.5797346114018582, "vodafone_idea_nearest_km": 6.9693379493601553 }, "geometry": { "type": "Point", "coordinates": [ 82.783020232787393, 18.77428298869042 ] } },
{ "type": "Feature", "properties": { "state": "Odisha", "district": "Koraput", "block": "Koraput", "village": "Padmapur", "lgd_code": "429001", "latitude": 18.788238357126431, "longitude": 82.804477000455407, "coordinate_source": "lgd_master", "village_id": 84, "airtel_score": "Moderate", "bsnl_score": "Moderate", "jio_score": "Weak", "vodafone_idea_score": "Weak", "airtel_nearest_km": 4.1246909218398269, "bsnl_nearest_km": 3.7475964923094396, "jio_nearest_km": 5.6521185671102732, "vodafone_idea_nearest_km": 6.5225507782501886 }, "geometry": { "type": "Point", "coordinates": [ 82.804477000455407, 18.788238357126431 ] } },
{ "type": "Feature", "properties": { "state": "Odisha", "district": "Koraput", "block": "Koraput", "village": "Chappar", "lgd_code": "428974", "latitude": 18.816217016621671, "longitude": 82.67888695197901, "coordinate_source": "lgd_master", "village_id": 85, "airtel_score": "Strong", "bsnl_score": "Strong", "jio_score": "Moderate", "vodafone_idea_score": "Moderate", "airtel_nearest_km": 0.4348575974879868, "bsnl_nearest_km": 1.2439621040523057, "jio_nearest_km": 3.3509967657519617, "vodafone_idea_nearest_km": null }, "geometry": { "type": "Point", "coordinates": [ 82.67888695197901, 18.816217016621671 ] } },
{ "type": "Feature", "properties": { "state": "Odisha", "district": "Koraput", "block": "Koraput", "village": "Khaparaput", "lgd_code": "428972", "latitude": 18.800950468215468, "longitude": 82.646863702834111, "coordinate_source": "lgd_master", "village_id": 86, "airtel_score": "Moderate", "bsnl_score": "Moderate", "jio_score": "Weak", "vodafone_idea_score": "Moderate", "airtel_nearest_km": 3.2238929604727566, "bsnl_nearest_km": 3.2323513154890224, "jio_nearest_km": 6.7303041039079385, "vodafone_idea_nearest_km": null }, "geometry": { "type": "Point", "coordinates": [ 82.646863702834111, 18.800950468215468 ] } },
{ "type": "Feature", "properties": { "state": "Odisha", "district": "Koraput", "block": "Koraput", "village": "Khillaput", "lgd_code": "428976", "latitude": 18.791352613598651, "longitude": 82.657509885012701, "coordinate_source": "lgd_master", "village_id": 87, "airtel_score": "Moderate", "bsnl_score": "Moderate", "jio_score": "Weak", "vodafone_idea_score": "Moderate", "airtel_nearest_km": 3.4333809192983233, "bsnl_nearest_km": 4.3503935869806822, "jio_nearest_km": 5.905715029086517, "vodafone_idea_nearest_km": null }, "geometry": { "type": "Point", "coordinates": [ 82.657509885012701, 18.791352613598651 ] } },
{ "type": "Feature", "properties": { "state": "Odisha", "district": "Koraput", "block": "Koraput", "village": "Machhara-I", "lgd_code": "428973", "latitude": 18.816597642511269, "longitude": 82.65355221304246, "coordinate_source": "lgd_master", "village_id": 88, "airtel_score": "Strong", "bsnl_score": "Strong", "jio_score": "Weak", "vodafone_idea_score": "Moderate", "airtel_nearest_km": 1.5299859468224872, "bsnl_nearest_km": 1.5299859468224872, "jio_nearest_km": 5.9946771591776553, "vodafone_idea_nearest_km": null }, "geometry": { "type": "Point", "coordinates": [ 82.65355221304246, 18.816597642511269 ] } },
{ "type": "Feature", "properties": { "state": "Odisha", "district": "Koraput", "block": "Koraput", "village": "Padeiguda", "lgd_code": "428966", "latitude": 18.839513275539389, "longitude": 82.665761930253353, "coordinate_source": "lgd_master", "village_id": 89, "airtel_score": "Strong", "bsnl_score": "Strong", "jio_score": "Weak", "vodafone_idea_score": "Moderate", "airtel_nearest_km": 1.9668231990323195, "bsnl_nearest_km": 1.8970792950650788, "jio_nearest_km": 5.6932398531349753, "vodafone_idea_nearest_km": null }, "geometry": { "type": "Point", "coordinates": [ 82.665761930253353, 18.839513275539389 ] } },
{ "type": "Feature", "properties": { "state": "Odisha", "district": "Koraput", "block": "Koraput", "village": "Umuri", "lgd_code": "428975", "latitude": 18.797476999729849, "longitude": 82.668867884445277, "coordinate_source": "lgd_master", "village_id": 90, "airtel_score": "Moderate", "bsnl_score": "Moderate", "jio_score": "Moderate", "vodafone_idea_score": "Moderate", "airtel_nearest_km": 2.4958774857025281, "bsnl_nearest_km": 3.3432280586427097, "jio_nearest_km": 4.5520829064753565, "vodafone_idea_nearest_km": null }, "geometry": { "type": "Point", "coordinates": [ 82.668867884445277, 18.797476999729849 ] } },
{ "type": "Feature", "properties": { "state": "Odisha", "district": "Koraput", "block": "Koraput", "village": "Barangaput", "lgd_code": "959635", "latitude": 18.778273577766551, "longitude": 82.907760964012837, "coordinate_source": "lgd_master", "village_id": 91, "airtel_score": "Strong", "bsnl_score": "Strong", "jio_score": "Strong", "vodafone_idea_score": "Strong", "airtel_nearest_km": 1.5825096625918285, "bsnl_nearest_km": 1.5825096625918285, "jio_nearest_km": 1.5825096625918285, "vodafone_idea_nearest_km": 1.5825096625918285 }, "geometry": { "type": "Point", "coordinates": [ 82.907760964012837, 18.778273577766551 ] } },
{ "type": "Feature", "properties": { "state": "Odisha", "district": "Koraput", "block": "Koraput", "village": "Chindri", "lgd_code": "953235", "latitude": 18.810704214720499, "longitude": 82.740001434394927, "coordinate_source": "lgd_master", "village_id": 92, "airtel_score": "Moderate", "bsnl_score": "Strong", "jio_score": "Moderate", "vodafone_idea_score": "Moderate", "airtel_nearest_km": 2.1098290029499638, "bsnl_nearest_km": 0.077950762332651441, "jio_nearest_km": 2.5226669282283827, "vodafone_idea_nearest_km": null }, "geometry": { "type": "Point", "coordinates": [ 82.740001434394927, 18.810704214720499 ] } },
{ "type": "Feature", "properties": { "state": "Odisha", "district": "Koraput", "block": "Koraput", "village": "Dangadeula", "lgd_code": "953234", "latitude": 18.778012668710229, "longitude": 82.716539451758692, "coordinate_source": "lgd_master", "village_id": 93, "airtel_score": "Strong", "bsnl_score": "Strong", "jio_score": "Strong", "vodafone_idea_score": "Moderate", "airtel_nearest_km": 1.3761229107452779, "bsnl_nearest_km": 1.3761229107452779, "jio_nearest_km": 1.942810273334963, "vodafone_idea_nearest_km": null }, "geometry": { "type": "Point", "coordinates": [ 82.716539451758692, 18.778012668710229 ] } },
{ "type": "Feature", "properties": { "state": "Odisha", "district": "Koraput", "block": "Koraput", "village": "Disari Kharaguda", "lgd_code": "956685", "latitude": 18.76717975655157, "longitude": 82.747911544116207, "coordinate_source": "lgd_master", "village_id": 94, "airtel_score": "Strong", "bsnl_score": "Strong", "jio_score": "Strong", "vodafone_idea_score": "Weak", "airtel_nearest_km": 0.38202683793332654, "bsnl_nearest_km": 1.1521744609202138, "jio_nearest_km": 1.64609680084183, "vodafone_idea_nearest_km": 9.5850303107961441 }, "geometry": { "type": "Point", "coordinates": [ 82.747911544116207, 18.76717975655157 ] } },
{ "type": "Feature", "properties": { "state": "Odisha", "district": "Koraput", "block": "Koraput", "village": "Kanheiput", "lgd_code": "953248", "latitude": 18.79441846906029, "longitude": 82.709890345952772, "coordinate_source": "lgd_master", "village_id": 95, "airtel_score": "Strong", "bsnl_score": "Strong", "jio_score": "Strong", "vodafone_idea_score": "Moderate", "airtel_nearest_km": 0.61792679084928992, "bsnl_nearest_km": 0.61792679084928992, "jio_nearest_km": 1.7247564795752202, "vodafone_idea_nearest_km": null }, "geometry": { "type": "Point", "coordinates": [ 82.709890345952772, 18.79441846906029 ] } },
{ "type": "Feature", "properties": { "state": "Odisha", "district": "Koraput", "block": "Koraput", "village": "Kantaguda", "lgd_code": "956559", "latitude": 18.75980239015621, "longitude": 82.880227712498737, "coordinate_source": "lgd_master", "village_id": 96, "airtel_score": "Strong", "bsnl_score": "Moderate", "jio_score": "Strong", "vodafone_idea_score": "Moderate", "airtel_nearest_km": 1.0307335872463534, "bsnl_nearest_km": 2.0851356332980644, "jio_nearest_km": 1.0307335872463534, "vodafone_idea_nearest_km": 4.1941333738508115 }, "geometry": { "type": "Point", "coordinates": [ 82.880227712498737, 18.75980239015621 ] } },
{ "type": "Feature", "properties": { "state": "Odisha", "district": "Koraput", "block": "Koraput", "village": "Koraput", "lgd_code": "953247", "latitude": 18.8030457350464, "longitude": 82.721534025774119, "coordinate_source": "lgd_master", "village_id": 97, "airtel_score": "Strong", "bsnl_score": "Strong", "jio_score": "Strong", "vodafone_idea_score": "Moderate", "airtel_nearest_km": 0.37391176367067513, "bsnl_nearest_km": 0.37391176367067513, "jio_nearest_km": 1.4390335746527456, "vodafone_idea_nearest_km": null }, "geometry": { "type": "Point", "coordinates": [ 82.721534025774119, 18.8030457350464 ] } },
{ "type": "Feature", "properties": { "state": "Odisha", "district": "Koraput", "block": "Koraput", "village": "Koraput Nagar", "lgd_code": "953246", "latitude": 18.81057468476444, "longitude": 82.713324950365802, "coordinate_source": "lgd_master", "village_id": 98, "airtel_score": "Strong", "bsnl_score": "Strong", "jio_score": "Strong", "vodafone_idea_score": "Moderate", "airtel_nearest_km": 0.35621220059961162, "bsnl_nearest_km": 0.35621220059961162, "jio_nearest_km": 0.35621220059961162, "vodafone_idea_nearest_km": null }, "geometry": { "type": "Point", "coordinates": [ 82.713324950365802, 18.81057468476444 ] } },
{ "type": "Feature", "properties": { "state": "Odisha", "district": "Koraput", "block": "Koraput", "village": "Kurumuli", "lgd_code": "959286", "latitude": 18.74735041005469, "longitude": 82.939774203613055, "coordinate_source": "lgd_master", "village_id": 99, "airtel_score": "Strong", "bsnl_score": "Strong", "jio_score": "Moderate", "vodafone_idea_score": "Moderate", "airtel_nearest_km": 1.7387967113840661, "bsnl_nearest_km": 1.7387967113840661, "jio_nearest_km": 2.1059308559170606, "vodafone_idea_nearest_km": 2.5118869349971558 }, "geometry": { "type": "Point", "coordinates": [ 82.939774203613055, 18.74735041005469 ] } },
{ "type": "Feature", "properties": { "state": "Odisha", "district": "Koraput", "block": "Koraput", "village": "Landiguda", "lgd_code": "953245", "latitude": 18.775482062526748, "longitude": 82.735180172138428, "coordinate_source": "lgd_master", "village_id": 100, "airtel_score": "Strong", "bsnl_score": "Strong", "jio_score": "Strong", "vodafone_idea_score": "Moderate", "airtel_nearest_km": 0.71297176822937192, "bsnl_nearest_km": 0.74052824908442805, "jio_nearest_km": 0.71297176822937192, "vodafone_idea_nearest_km": null }, "geometry": { "type": "Point", "coordinates": [ 82.735180172138428, 18.775482062526748 ] } },
{ "type": "Feature", "properties": { "state": "Odisha", "district": "Koraput", "block": "Koraput", "village": "Sapsil", "lgd_code": "959290", "latitude": 18.795413030831028, "longitude": 82.7949938757653, "coordinate_source": "lgd_master", "village_id": 101, "airtel_score": "Moderate", "bsnl_score": "Moderate", "jio_score": "Weak", "vodafone_idea_score": "Weak", "airtel_nearest_km": 4.0647424314186251, "bsnl_nearest_km": 3.1391803681620618, "jio_nearest_km": 6.0437004568020773, "vodafone_idea_nearest_km": 7.7553829623409705 }, "geometry": { "type": "Point", "coordinates": [ 82.7949938757653, 18.795413030831028 ] } },
{ "type": "Feature", "properties": { "state": "Odisha", "district": "Koraput", "block": "Koraput", "village": "Sindhipar", "lgd_code": "956684", "latitude": 18.7626247703258, "longitude": 82.895177203386069, "coordinate_source": "lgd_master", "village_id": 102, "airtel_score": "Strong", "bsnl_score": "Strong", "jio_score": "Strong", "vodafone_idea_score": "Moderate", "airtel_nearest_km": 0.58572097067746842, "bsnl_nearest_km": 0.58572097067746842, "jio_nearest_km": 0.61844720566921774, "vodafone_idea_nearest_km": 2.6336849584435269 }, "geometry": { "type": "Point", "coordinates": [ 82.895177203386069, 18.7626247703258 ] } },
{ "type": "Feature", "properties": { "state": "Odisha", "district": "Koraput", "block": "Koraput", "village": "Tentuliguda", "lgd_code": "953239", "latitude": 18.810725876686789, "longitude": 82.754687728200381, "coordinate_source": "lgd_master", "village_id": 103, "airtel_score": "Moderate", "bsnl_score": "Strong", "jio_score": "Moderate", "vodafone_idea_score": "Moderate", "airtel_nearest_km": 3.4368258952709088, "bsnl_nearest_km": 0.50063721480809875, "jio_nearest_km": 3.4693686255232437, "vodafone_idea_nearest_km": null }, "geometry": { "type": "Point", "coordinates": [ 82.754687728200381, 18.810725876686789 ] } }
]
}
